IRIDIUM 126             
1 42809U 17039G   24005.48369861  .00000332  00000+0  11138-3 0  9993
2 42809  86.3971   7.1248 0002540  89.4518 270.6969 14.34217689341852
IRIDIUM 124             
1 42810U 17039H   24005.30851053  .00000474  00000+0  13504-3 0  9991
2 42810  86.4500 303.9534 0002017  81.5643 278.5786 14.43270732346182
IRIDIUM 128             
1 42811U 17039J   24005.61396351  .00000246  00000+0  80709-4 0  9990
2 42811  86.3956  38.5867 0002263  90.8565 269.2890 14.34216838341901
IRIDIUM 121             
1 42812U 17039K   24005.50272693  .00000330  00000+0  11074-3 0  9993
2 42812  86.3972   7.1387 0002274  92.2253 267.9203 14.34218147341730
IRIDIUM 133             
1 42955U 17061A   24005.57590994  .00000301  00000+0  10031-3 0  9990
2 42955  86.3959  38.6985 0002328  94.0412 266.1050 14.34217634326692
IRIDIUM 100             
1 42956U 17061B   24005.56956807  .00000319  00000+0  10679-3 0  9996
2 42956  86.3957  38.6408 0002242  92.2484 267.8969 14.34217726326694
IRIDIUM 122             
1 42957U 17061C   24005.60762358  .00000294  00000+0  97853-4 0  9990
2 42957  86.3957  38.6227 0002286  88.1040 272.0417 14.34218761326702
IRIDIUM 129             
1 42958U 17061D   24005.56322389  .00000392  00000+0  13305-3 0  9990
2 42958  86.3958  38.6989 0002324  89.3101 270.8361 14.34216825326717
